ONEWEB-0027             
1 45432U 20020J   24094.45894238  .00000047  00000+0  87586-4 0  9992
2 45432  87.9236 165.9775 0002440 108.9246 251.2150 13.17649980200382
ONEWEB-0064             
1 45433U 20020K   24094.17804372 -.00000200  00000+0 -59901-3 0  9994
2 45433  87.9036 181.1603 0002041 113.0582 247.0761 13.11414801197188
ONEWEB-0018             
1 45434U 20020L   24094.51569130  .00000040  00000+0  76824-4 0  9997
2 45434  87.9038 181.0867 0001864 102.6498 257.4838 13.11420519197176
ONEWEB-0083             
1 45435U 20020M   24094.50432695 -.00000395  00000+0 -11497-2 0  9990
2 45435  87.9039 181.0689 0002035 105.5399 254.5953 13.11419053197215
ONEWEB-0095             
1 45436U 20020N   24094.49635665 -.00000512  00000+0 -14795-2 0  9996
2 45436  87.9036 181.1075 0002380 102.4662 257.6733 13.11417142197212
ONEWEB-0092             
1 45437U 20020P   24094.54004602  .00000584  00000+0  16124-2 0  9999
2 45437  87.9037 181.0797 0002329 100.9390 259.2000 13.11419041197325
ONEWEB-0085             
1 45438U 20020Q   24093.81116766 -.00000541  00000+0 -15619-2 0  9997
2 45438  87.9039 181.2290 0001795 105.6592 254.4734 13.11419764197121
ONEWEB-0096             
1 45439U 20020R   24094.50595400 -.00000314  00000+0 -92248-3 0  9993
2 45439  87.9037 181.0636 0001741 101.8958 258.2365 13.11418173197201
